[{"OBJECT_NAME":"STARLINK-4060","OBJECT_ID":"2022-086AB","EPOCH":"2026-03-09T14:01:41.760768","MEAN_MOTION":15.08831741,"ECCENTRICITY":0.0001187,"INCLINATION":53.2175,"RA_OF_ASC_NODE":194.5935,"ARG_OF_PERICENTER":85.005,"MEAN_ANOMALY":275.1078,"EPHEMERIS_TYPE":0,"CLASSIFICATION_TYPE":"U","NORAD_CAT_ID":53267,"ELEMENT_SET_NO":999,"REV_AT_EPOCH":20105,"BSTAR":7.4823e-5,"MEAN_MOTION_DOT":9.03e-6,"MEAN_MOTION_DDOT":0},{"OBJECT_NAME":"CZ-2C DEB","OBJECT_ID":"2011-030F","EPOCH":"2026-03-09T18:15:45.395712","MEAN_MOTION":15.09717889,"ECCENTRICITY":0.00353547,"INCLINATION":98.459,"RA_OF_ASC_NODE":350.9929,"ARG_OF_PERICENTER":109.3287,"MEAN_ANOMALY":305.6279,"EPHEMERIS_TYPE":0,"CLASSIFICATION_TYPE":"U","NORAD_CAT_ID":37735,"ELEMENT_SET_NO":999,"REV_AT_EPOCH":78307,"BSTAR":0.0021378399,"MEAN_MOTION_DOT":0.00035046,"MEAN_MOTION_DDOT":0}]
